AMC-1 (GE-1)            
1 24315U 96054A   22317.58531398  .00000075  00000+0  00000+0 0  9996
2 24315   5.9704  71.8599 0003688 168.9414 251.7060  1.00272715 33179
AMC-3 (GE-3)            
1 24936U 97050A   22317.39908122 -.00000250  00000+0  00000+0 0  9990
2 24936   4.9070  78.0558 0003300 165.7769 240.3475  1.00272633 39287
ASTRA 1G                
1 25071U 97076A   22317.52464610  .00000125  00000+0  00000+0 0  9993
2 25071   6.5840  67.1201 0003902 168.9936  24.7838  1.00272821 91356
ASTRA 2A                
1 25462U 98050A   22317.41993868  .00000079  00000+0  00000+0 0  9998
2 25462   3.7737  83.9388 0003382 147.7916  29.1942  1.00270545 33184
AMC-4 (GE-4)            
1 25954U 99060A   22317.58099897  .00000098  00000+0  00000+0 0  9994
2 25954   1.8933  90.0808 0002840 153.4691 243.4062  1.00272275 30403
NSS-11 (AAP-1)          
1 26554U 00059A   22317.51851635  .00000035  00000+0  00000+0 0  9991
2 26554   0.0227  18.2708 0002697 234.6777 162.3569  1.00269110 81024
AMC-6 (GE-6)            
1 26580U 00067A   22317.57585247  .00000115  00000+0  00000+0 0  9997
2 26580   0.0182 309.1884 0003092 292.3342 239.4733  1.00273160 80768
ASTRA 2D                
1 26638U 00081A   22317.02336064  .00000139  00000+0  00000+0 0  9994
2 26638   7.6062  59.2766 0001607 174.9059 210.1181  1.00276532 39756
AMC-8 (GE-8)            
1 26639U 00081B   22317.58099913  .00000098  00000+0  00000+0 0  9999
2 26639   2.8195  86.9346 0000951  54.6583 345.2669  1.00273498 80181
ASTRA 2C                
1 26853U 01025A   22317.39877212 -.00000249  00000+0  00000+0 0  9990
2 26853   4.9312  77.8623 0003251 164.3566 241.3838  1.00274184 31897
ASTRA 3A                
1 27400U 02015B   22317.45516130 -.00000194  00000+0  00000+0 0  9994
2 27400   7.7051  58.1662 0002064 194.7928 236.6116  1.00272489 75577
NSS-7                   
1 27414U 02019A   22317.13313375 -.00000148  00000+0  00000+0 0  9993
2 27414   6.2452  70.0638 0002427 171.3739 198.7364  1.00271630 75414
NSS-6                   
1 27603U 02057A   22317.53699374  .00000118  00000+0  00000+0 0  9991
2 27603   1.9843  89.8664 0003878 151.0563 195.5668  1.00269627 72881
AMC-11 (GE-11)          
1 28252U 04017A   22317.51717831  .00000079  00000+0  00000+0 0  9993
2 28252   0.0173 332.7146 0002921 264.5501 230.5586  1.00272701 67557
AMC-15                  
1 28446U 04041A   22317.50862368 -.00000078  00000+0  00000+0 0  9990
2 28446   0.0191 328.2297 0002692 277.8063 244.6424  1.00272514 66170
NSS-10 (AMC-12)         
1 28526U 05003A   22317.44157792 -.00000240  00000+0  00000+0 0  9990
2 28526   3.1524  85.7169 0003087 149.2396 299.1174  1.00271228 65162
ASTRA 1KR               
1 29055U 06012A   22317.36577319  .00000130  00000+0  00000+0 0  9998
2 29055   0.0065 310.1439 0005397 283.3857 329.8184  1.00273083 32571
AMC-18                  
1 29644U 06054B   22317.52190154 -.00000205  00000+0  00000+0 0  9998
2 29644   0.0480  86.9076 0002620 148.5093 282.1048  1.00271821 58397
ASTRA 1L                
1 31306U 07016A   22317.52464610  .00000130  00000+0  00000+0 0  9992
2 31306   0.0386   9.1486 0005151 255.7562 355.8002  1.00272674 31853
ASTRA 4A (SIRIUS 4)     
1 32299U 07057A   22317.52168249  .00000043  00000+0  00000+0 0  9991
2 32299   0.0346  61.2436 0002967 172.7952  11.2199  1.00271990 38518
AMC-21                  
1 33275U 08038B   22317.49783788  .00000046  00000+0  00000+0 0  9996
2 33275   0.0585  86.8309 0002758 156.0456 224.0569  1.00272871 52310
ASTRA 1M                
1 33436U 08057A   22317.36577319  .00000130  00000+0  00000+0 0  9997
2 33436   0.0646  96.5684 0003787 100.5227   6.2676  1.00270885 32572
CIEL-2                  
1 33453U 08063A   22317.52054137  .00000068  00000+0  00000+0 0  9999
2 33453   0.0109 241.2799 0003147 353.3148 236.5838  1.00271950 50988
NSS-9                   
1 33749U 09008A   22317.52701507  .00000082  00000+0  00000+0 0  9993
2 33749   0.0174 332.9054 0002332 260.1859 192.3442  1.00270610 50374
SES-7 (PROTOSTAR 2)     
1 34941U 09027A   22317.47060383 -.00000335  00000+0  00000+0 0  9995
2 34941   0.0822  89.9910 0002171 164.9502  75.3187  1.00271500 49469
NSS-12                  
1 36032U 09058A   22317.41993868  .00000081  00000+0  00000+0 0  9996
2 36032   0.0491  85.3509 0002937 157.0885  18.2714  1.00272237 47766
SES-1                   
1 36516U 10016A   22317.51093521 -.00000104  00000+0  00000+0 0  9994
2 36516   0.0350  69.4456 0002712 167.0442 259.0771  1.00272696 45891
ASTRA 3B                
1 36581U 10021A   22317.31022036  .00000147  00000+0  00000+0 0  9999
2 36581   0.0493 334.6057 0004214 251.5776 321.4150  1.00273384 45725
SES-3                   
1 37748U 11035A   22317.51015427 -.00000091  00000+0  00000+0 0  9998
2 37748   0.0492  75.4175 0002894 161.5621 256.2946  1.00271176 41442
ASTRA 1N                
1 37775U 11041A   22317.52464610  .00000130  00000+0  00000+0 0  9991
2 37775   0.0783  60.5894 0000810 255.6409 304.4959  1.00271367 31376
SES-2                   
1 37809U 11049A   22317.51959899 -.00000185  00000+0  00000+0 0  9995
2 37809   0.0127 322.6958 0002561 277.5997 272.4032  1.00270687 40818
QUETZSAT 1              
1 37826U 11054A   22317.51230007 -.00000231  00000+0  00000+0 0  9995
2 37826   0.0423  77.8960 0002853 151.6380 290.5280  1.00270973 36730
SES-4                   
1 38087U 12007A   22317.38243656 -.00000158  00000+0  00000+0 0  9991
2 38087   0.0164 339.6749 0002187 258.2481 290.2578  1.00271006 39088
SES-5                   
1 38652U 12036A   22317.52168249  .00000044  00000+0  00000+0 0  9994
2 38652   0.0586 293.1011 0002319 298.7387  13.5809  1.00270842 31331
ASTRA 2F                
1 38778U 12051A   22317.34493766  .00000160  00000+0  00000+0 0  9994
2 38778   0.0469 236.7376 0004655 357.5749 330.5342  1.00273874 27975
SES-6                   
1 39172U 13026A   22317.45466098 -.00000251  00000+0  00000+0 0  9998
2 39172   0.0240 313.4700 0002655 281.5120 300.7693  1.00271092 34574
O3B FM5                 
1 39188U 13031A   22317.39567370 -.00000023  00000+0  00000+0 0  9996
2 39188   0.0659  12.8587 0002754 224.8444 122.2760  5.00115389171403
O3B FM4                 
1 39189U 13031B   22317.05186106 -.00000023  00000+0  00000+0 0  9994
2 39189   0.0454 352.9999 0002710 244.4081 122.5716  5.00115910171414
O3B FM2                 
1 39190U 13031C   22317.34321338 -.00000023  00000+0  00000+0 0  9996
2 39190   0.0434 346.7402 0002712 248.8509 124.3890  5.00115174171470
O3B PFM                 
1 39191U 13031D   22317.36947703 -.00000023  00000+0  00000+0 0  9999
2 39191   0.0577   9.2934 0002726 224.3495 126.3377  5.00115821171042
ASTRA 2E                
1 39285U 13056A   22317.34493766  .00000160  00000+0  00000+0 0  9994
2 39285   0.0594 353.2548 0002195 244.3383 327.5320  1.00273608 33286
SES-8                   
1 39460U 13071A   22317.46798889 -.00000260  00000+0  00000+0 0  9995
2 39460   0.0115 253.0515 0001004 315.4872 107.5208  1.00271634 31277
ASTRA 5B                
1 39617U 14011B   22317.45526281  .00000165  00000+0  00000+0 0  9991
2 39617   0.0511 314.8309 0004168 273.2028  19.9549  1.00272423 31514
O3B FM3                 
1 40079U 14038A   22317.42428309 -.00000023  00000+0  00000+0 0  9997
2 40079   0.0508 359.6460 0004649 210.3294 150.0036  5.00115413147425
O3B FM7                 
1 40080U 14038B   22317.37035081 -.00000023  00000+0  00000+0 0  9994
2 40080   0.0513 354.6746 0002444 281.1790  84.1243  5.00115586152258
O3B FM6                 
1 40081U 14038C   22316.59717755 -.00000024  00000+0  00000+0 0  9994
2 40081   0.0498 359.5304 0002783 233.3219 127.1281  5.00115391152160
O3B FM8                 
1 40082U 14038D   22317.05084836 -.00000023  00000+0  00000+0 0  9993
2 40082   0.0469 357.7519 0002673 232.6894 129.5408  5.00115726152301
O3B FM10                
1 40348U 14083A   22317.27685430 -.00000023  00000+0  00000+0 0  9999
2 40348   0.0526   9.2353 0002694 223.6501 127.0957  5.00115212144250
O3B FM11                
1 40349U 14083B   22317.29028307 -.00000023  00000+0  00000+0 0  9996
2 40349   0.0564   6.2626 0002830 241.2156 112.4976  5.00115457144280
O3B FM12                
1 40350U 14083C   22317.31750556 -.00000023  00000+0  00000+0 0  9999
2 40350   0.0555   6.0466 0002877 229.2962 124.6357  5.00115290144298
O3B FM9                 
1 40351U 14083D   22317.14440821 -.00000023  00000+0  00000+0 0  9992
2 40351   0.0575   5.8754 0002690 228.2263 125.8790  5.00116193144426
ASTRA 2G                
1 40364U 14089A   22317.34493766  .00000160  00000+0  00000+0 0  9991
2 40364   0.0433  28.6881 0000848  29.2582 146.9287  1.00270007 28813
SES-9                   
1 41380U 16013A   22317.47060383 -.00000335  00000+0  00000+0 0  9993
2 41380   0.0183 293.2912 0000818 240.5097 156.5072  1.00270394 24280
SES-10                  
1 42432U 17017A   22317.46651157 -.00000262  00000+0  00000+0 0  9990
2 42432   0.0111 348.6511 0003081 255.2229 269.7614  1.00272623 20591
SES-15                  
1 42709U 17026A   22317.44150569  .00000070  00000+0  00000+0 0  9992
2 42709   0.0216 353.3495 0000660 243.5272 205.4742  1.00270991 20995
SES-11 (ECHOSTAR 105)   
1 42967U 17063A   22317.50938826 -.00000079  00000+0  00000+0 0  9996
2 42967   0.0132 297.0569 0002978 306.2258 247.7807  1.00272244 18574
SES-14                  
1 43175U 18012B   22316.36355080 -.00000268  00000+0  00000+0 0  9991
2 43175   0.0160 300.8895 0001370 293.3140 260.6757  1.00274374 17891
O3B FM15                
1 43231U 18024A   22317.41024300 -.00000023  00000+0  00000+0 0  9991
2 43231   0.0502  12.1557 0003037 222.5749 125.2468  5.00116173 85406
O3B FM16                
1 43232U 18024B   22317.06386971 -.00000023  00000+0  00000+0 0  9998
2 43232   0.0484  16.6387 0003023 218.3166 125.0221  5.00115958 85301
O3B FM14                
1 43233U 18024C   22317.30346260 -.00000023  00000+0  00000+0 0  9993
2 43233   0.0473  17.8968 0002922 220.4476 121.6328  5.00115412 85320
O3B FM13                
1 43234U 18024D   22317.35699247 -.00000023  00000+0  00000+0 0  9995
2 43234   0.0601  11.7854 0003844 224.3463 123.8374  5.00115346 85448
SES-12                  
1 43488U 18049A   22317.46798889 -.00000260  00000+0  00000+0 0  9990
2 43488   0.0460  80.6484 0002664 177.3091  58.1045  1.00270711 16262
O3B FM20                
1 44112U 19020A   22317.33015755 -.00000023  00000+0  00000+0 0  9992
2 44112   0.0520   8.8658 0003292 230.7578 120.3496  5.00115510 65930
O3B FM19                
1 44113U 19020B   22317.35700064 -.00000023  00000+0  00000+0 0  9999
2 44113   0.0750  13.1953 0002140 249.6392  97.1469  5.00115188 65816
O3B FM17                
1 44114U 19020C   22317.23756054 -.00000023  00000+0  00000+0 0  9997
2 44114   0.0325   6.8441 0003161 227.6225 125.5096  5.00115697 65896
O3B FM18                
1 44115U 19020D   22317.18405937 -.00000023  00000+0  00000+0 0  9993
2 44115   0.0524   9.0154 0002949 223.7511 127.2123  5.00115836 66012
SES-17                  
1 49332U 21095A   22315.57027506 -.00000263  00000+0  00000+0 0  9993
2 49332   0.0094 325.6772 0001698 271.2497 311.9927  1.00277117  4679
SES-22                  
1 52933U 22071A   22317.43684667  .00000098  00000+0  00000+0 0  9998
2 52933   0.0151 286.4150 0002727 313.5854 194.8174  1.00271581  1396
